{
  "type": "FeatureCollection",
  "features": [
    {
      "type": "Feature",
      "properties": {
        "norad_id": 41589,
        "name": "EUTELSAT 117 WEST B (WAAS/PRN 131)",
        "group": "gnss",
        "lat": -0.010836244326395267,
        "lon": 34.135901857479276,
        "alt_km": 35786.23330717944,
        "timestamp": "2025-12-09T04:51:47.738050+00:00",
        "meta_object_name": "EUTELSAT 117 WEST B (WAAS/PRN 131)",
        "meta_object_id": "2016-038B",
        "meta_epoch": "2025-12-08T16:28:20.761824",
        "meta_mean_motion": 1.00268965,
        "meta_eccentricity": 4.33e-05,
        "meta_inclination": 0.0072,
        "meta_ra_of_asc_node": 147.2989,
        "meta_arg_of_pericenter": 317.1838,
        "meta_mean_anomaly": 103.2954,
        "meta_ephemeris_type": 0,
        "meta_classification_type": "U",
        "meta_norad_cat_id": 41589,
        "meta_element_set_no": 999,
        "meta_rev_at_epoch": 3475,
        "meta_bstar": 0,
        "meta_mean_motion_dot": -9e-08,
        "meta_mean_motion_ddot": 0,
        "tle_line1": "1 41589U 16038B   25342.68635141 -.00000009  00000+0  00000+0 0  9993",
        "tle_line2": "2 41589   0.0072 147.2989 0000433 317.1838 103.2954  1.00268965 34759"
      },
      "geometry": {
        "type": "Point",
        "coordinates": [
          34.135901857479276,
          -0.010836244326395267
        ]
      }
    },
    {
      "type": "Feature",
      "properties": {
        "norad_id": 41859,
        "name": "GSAT0207 (GALILEO 15)",
        "group": "gnss",
        "lat": -36.90689418875815,
        "lon": 75.12013948859047,
        "alt_km": 23220.325041519307,
        "timestamp": "2025-12-09T04:51:47.738061+00:00",
        "meta_object_name": "GSAT0207 (GALILEO 15)",
        "meta_object_id": "2016-069A",
        "meta_epoch": "2025-12-06T22:22:57.829728",
        "meta_mean_motion": 1.70474256,
        "meta_eccentricity": 0.00021753,
        "meta_inclination": 55.3787,
        "meta_ra_of_asc_node": 106.4111,
        "meta_arg_of_pericenter": 324.2379,
        "meta_mean_anomaly": 35.7022,
        "meta_ephemeris_type": 0,
        "meta_classification_type": "U",
        "meta_norad_cat_id": 41859,
        "meta_element_set_no": 999,
        "meta_rev_at_epoch": 5612,
        "meta_bstar": 0,
        "meta_mean_motion_dot": 7e-08,
        "meta_mean_motion_ddot": 0,
        "tle_line1": "1 41859U 16069A   25340.93261377  .00000007  00000+0  00000+0 0  9996",
        "tle_line2": "2 41859  55.3787 106.4111 0002175 324.2379  35.7022  1.70474256 56122"
      },
      "geometry": {
        "type": "Point",
        "coordinates": [
          75.12013948859047,
          -36.90689418875815
        ]
      }
    },
    {
      "type": "Feature",
      "properties": {
        "norad_id": 41860,
        "name": "GSAT0212 (GALILEO 16)",
        "group": "gnss",
        "lat": 34.13725128784959,
        "lon": 134.2338004421877,
        "alt_km": 23211.507349598178,
        "timestamp": "2025-12-09T04:51:47.738072+00:00",
        "meta_object_name": "GSAT0212 (GALILEO 16)",
        "meta_object_id": "2016-069B",
        "meta_epoch": "2025-12-06T04:47:33.838080",
        "meta_mean_motion": 1.70474471,
        "meta_eccentricity": 0.00022225,
        "meta_inclination": 55.376,
        "meta_ra_of_asc_node": 106.4267,
        "meta_arg_of_pericenter": 32.4045,
        "meta_mean_anomaly": 327.5613,
        "meta_ephemeris_type": 0,
        "meta_classification_type": "U",
        "meta_norad_cat_id": 41860,
        "meta_element_set_no": 999,
        "meta_rev_at_epoch": 5636,
        "meta_bstar": 0,
        "meta_mean_motion_dot": 6e-08,
        "meta_mean_motion_ddot": 0,
        "tle_line1": "1 41860U 16069B   25340.19969720  .00000006  00000+0  00000+0 0  9992",
        "tle_line2": "2 41860  55.3760 106.4267 0002222  32.4045 327.5613  1.70474471 56361"
      },
      "geometry": {
        "type": "Point",
        "coordinates": [
          134.2338004421877,
          34.13725128784959
        ]
      }
    },
    {
      "type": "Feature",
      "properties": {
        "norad_id": 41861,
        "name": "GSAT0213 (GALILEO 17)",
        "group": "gnss",
        "lat": 2.1565476318122925,
        "lon": -75.14841419511288,
        "alt_km": 23223.91332323421,
        "timestamp": "2025-12-09T04:51:47.738083+00:00",
        "meta_object_name": "GSAT0213 (GALILEO 17)",
        "meta_object_id": "2016-069C",
        "meta_epoch": "2025-12-07T03:41:32.905248",
        "meta_mean_motion": 1.70474767,
        "meta_eccentricity": 0.00022126,
        "meta_inclination": 55.379,
        "meta_ra_of_asc_node": 106.408,
        "meta_arg_of_pericenter": 283.542,
        "meta_mean_anomaly": 76.3889,
        "meta_ephemeris_type": 0,
        "meta_classification_type": "U",
        "meta_norad_cat_id": 41861,
        "meta_element_set_no": 999,
        "meta_rev_at_epoch": 5624,
        "meta_bstar": 0,
        "meta_mean_motion_dot": 7e-08,
        "meta_mean_motion_ddot": 0,
        "tle_line1": "1 41861U 16069C   25341.15385307  .00000007  00000+0  00000+0 0  9994",
        "tle_line2": "2 41861  55.3790 106.4080 0002212 283.5420  76.3889  1.70474767 56242"
      },
      "geometry": {
        "type": "Point",
        "coordinates": [
          -75.14841419511288,
          2.1565476318122925
        ]
      }
    },
    {
      "type": "Feature",
      "properties": {
        "norad_id": 41862,
        "name": "GSAT0214 (GALILEO 18)",
        "group": "gnss",
        "lat": 55.32643179506468,
        "lon": -167.54799334856747,
        "alt_km": 23219.147956085995,
        "timestamp": "2025-12-09T04:51:47.738094+00:00",
        "meta_object_name": "GSAT0214 (GALILEO 18)",
        "meta_object_id": "2016-069D",
        "meta_epoch": "2025-12-07T21:16:28.160256",
        "meta_mean_motion": 1.70474622,
        "meta_eccentricity": 0.00012492,
        "meta_inclination": 55.3777,
        "meta_ra_of_asc_node": 106.3805,
        "meta_arg_of_pericenter": 290.0949,
        "meta_mean_anomaly": 69.8506,
        "meta_ephemeris_type": 0,
        "meta_classification_type": "U",
        "meta_norad_cat_id": 41862,
        "meta_element_set_no": 999,
        "meta_rev_at_epoch": 5638,
        "meta_bstar": 0,
        "meta_mean_motion_dot": 8e-08,
        "meta_mean_motion_ddot": 0,
        "tle_line1": "1 41862U 16069D   25341.88643704  .00000008  00000+0  00000+0 0  9994",
        "tle_line2": "2 41862  55.3777 106.3805 0001249 290.0949  69.8506  1.70474622 56388"
      },
      "geometry": {
        "type": "Point",
        "coordinates": [
          -167.54799334856747,
          55.32643179506468
        ]
      }
    },
    {
      "type": "Feature",
      "properties": {
        "norad_id": 42709,
        "name": "SES-15 (WAAS/PRN 133)",
        "group": "gnss",
        "lat": 0.02548035746649559,
        "lon": 21.985074278386545,
        "alt_km": 35789.076293236896,
        "timestamp": "2025-12-09T04:51:47.738108+00:00",
        "meta_object_name": "SES-15 (WAAS/PRN 133)",
        "meta_object_id": "2017-026A",
        "meta_epoch": "2025-12-08T13:03:48.541248",
        "meta_mean_motion": 1.00272613,
        "meta_eccentricity": 8.213e-05,
        "meta_inclination": 0.0192,
        "meta_ra_of_asc_node": 342.9145,
        "meta_arg_of_pericenter": 237.5275,
        "meta_mean_anomaly": 283.896,
        "meta_ephemeris_type": 0,
        "meta_classification_type": "U",
        "meta_norad_cat_id": 42709,
        "meta_element_set_no": 999,
        "meta_rev_at_epoch": 552,
        "meta_bstar": 0,
        "meta_mean_motion_dot": 6.2e-07,
        "meta_mean_motion_ddot": 0,
        "tle_line1": "1 42709U 17026A   25342.54431182  .00000062  00000+0  00000+0 0  9998",
        "tle_line2": "2 42709   0.0192 342.9145 0000821 237.5275 283.8960  1.00272613  5526"
      },
      "geometry": {
        "type": "Point",
        "coordinates": [
          21.985074278386545,
          0.02548035746649559
        ]
      }
    },
    {
      "type": "Feature",
      "properties": {
        "norad_id": 42738,
        "name": "QZS-2 (QZSS/PRN 194)",
        "group": "gnss",
        "lat": 30.383976568530425,
        "lon": -69.2090437945211,
        "alt_km": 38226.09268857349,
        "timestamp": "2025-12-09T04:51:47.738119+00:00",
        "meta_object_name": "QZS-2 (QZSS/PRN 194)",
        "meta_object_id": "2017-028A",
        "meta_epoch": "2025-12-08T14:21:38.469888",
        "meta_mean_motion": 1.00284144,
        "meta_eccentricity": 0.0758218,
        "meta_inclination": 39.7211,
        "meta_ra_of_asc_node": 245.9442,
        "meta_arg_of_pericenter": 269.4343,
        "meta_mean_anomaly": 279.2962,
        "meta_ephemeris_type": 0,
        "meta_classification_type": "U",
        "meta_norad_cat_id": 42738,
        "meta_element_set_no": 999,
        "meta_rev_at_epoch": 571,
        "meta_bstar": 0,
        "meta_mean_motion_dot": -1.86e-06,
        "meta_mean_motion_ddot": 0,
        "tle_line1": "1 42738U 17028A   25342.59836192 -.00000186  00000+0  00000+0 0  9995",
        "tle_line2": "2 42738  39.7211 245.9442 0758218 269.4343 279.2962  1.00284144  5715"
      },
      "geometry": {
        "type": "Point",
        "coordinates": [
          -69.2090437945211,
          30.383976568530425
        ]
      }
    }
  ]
}